{"type": "FeatureCollection", "features": [ {"type": "Feature", "properties": {"norad_id": 34031, "name": "COSMOS 2251 DEB", "group": "cosmos-2251-debris", "lat": -18.236223459107887, "lon": -41.73280863392617, "alt_km": 689.2254471396727, "timestamp": "2025-12-14T05:42:18.856125+00:00", "meta": {"OBJECT_NAME": "COSMOS 2251 DEB", "OBJECT_ID": "1993-036HS", "EPOCH": "2025-12-13T12:52:04.744128", "MEAN_MOTION": 14.5970114, "ECCENTRICITY": 0.00230188, "INCLINATION": 74.0121, "RA_OF_ASC_NODE": 134.1861, "ARG_OF_PERICENTER": 254.5654, "MEAN_ANOMALY": 219.4283, "EPHEMERIS_TYPE": 0, "CLASSIFICATION_TYPE": "U", "NORAD_CAT_ID": 34031, "ELEMENT_SET_NO": 999, "REV_AT_EPOCH": 88577, "BSTAR": 0.0015944139, "MEAN_MOTION_DOT": 7.608e-05, "MEAN_MOTION_DDOT": 0}, "tle": {"line1": "1 34031U 93036HS  25347.53616602  .00007608  00000+0  15944-2 0  9997", "line2": "2 34031  74.0121 134.1861 0023018 254.5654 219.4283 14.59701140885773"}}, "geometry": {"type": "Point", "coordinates": [-41.73280863392617, -18.236223459107887]}}, {"type": "Feature", "properties": {"norad_id": 34035, "name": "COSMOS 2251 DEB", "group": "cosmos-2251-debris", "lat": -38.06954959682044, "lon": -26.606585028589375, "alt_km": 696.9992168309809, "timestamp": "2025-12-14T05:42:18.856135+00:00", "meta": {"OBJECT_NAME": "COSMOS 2251 DEB", "OBJECT_ID": "1993-036HW", "EPOCH": "2025-12-13T10:36:25.240320", "MEAN_MOTION": 14.51958988, "ECCENTRICITY": 0.00447444, "INCLINATION": 74.0661, "RA_OF_ASC_NODE": 347.8191, "ARG_OF_PERICENTER": 349.1396, "MEAN_ANOMALY": 133.5005, "EPHEMERIS_TYPE": 0, "CLASSIFICATION_TYPE": "U", "NORAD_CAT_ID": 34035, "ELEMENT_SET_NO": 999, "REV_AT_EPOCH": 87976, "BSTAR": 0.0027997294, "MEAN_MOTION_DOT": 0.0001144, "MEAN_MOTION_DDOT": 0}, "tle": {"line1": "1 34035U 93036HW  25347.44195880  .00011440  00000+0  27997-2 0  9991", "line2": "2 34035  74.0661 347.8191 0044744 349.1396 133.5005 14.51958988879764"}}, "geometry": {"type": "Point", "coordinates": [-26.606585028589375, -38.06954959682044]}}, {"type": "Feature", "properties": {"norad_id": 34036, "name": "COSMOS 2251 DEB", "group": "cosmos-2251-debris", "lat": 73.84762363819526, "lon": -115.43068979272536, "alt_km": 573.9840488614063, "timestamp": "2025-12-14T05:42:18.856146+00:00", "meta": {"OBJECT_NAME": "COSMOS 2251 DEB", "OBJECT_ID": "1993-036HX", "EPOCH": "2025-12-13T14:50:24.346176", "MEAN_MOTION": 14.95077916, "ECCENTRICITY": 0.00121651, "INCLINATION": 74.0195, "RA_OF_ASC_NODE": 147.4924, "ARG_OF_PERICENTER": 179.8692, "MEAN_ANOMALY": 180.2498, "EPHEMERIS_TYPE": 0, "CLASSIFICATION_TYPE": "U", "NORAD_CAT_ID": 34036, "ELEMENT_SET_NO": 999, "REV_AT_EPOCH": 88583, "BSTAR": 0.0036952097, "MEAN_MOTION_DOT": 0.00040754, "MEAN_MOTION_DDOT": 0}, "tle": {"line1": "1 34036U 93036HX  25347.61833734  .00040754  00000+0  36952-2 0  9999", "line2": "2 34036  74.0195 147.4924 0012165 179.8692 180.2498 14.95077916885835"}}, "geometry": {"type": "Point", "coordinates": [-115.43068979272536, 73.84762363819526]}}, {"type": "Feature", "properties": {"norad_id": 34037, "name": "COSMOS 2251 DEB", "group": "cosmos-2251-debris", "lat": -7.177446272064127, "lon": -130.2349972910155, "alt_km": 779.5063411032288, "timestamp": "2025-12-14T05:42:18.856156+00:00", "meta": {"OBJECT_NAME": "COSMOS 2251 DEB", "OBJECT_ID": "1993-036HY", "EPOCH": "2025-12-13T13:46:42.798144", "MEAN_MOTION": 14.34668836, "ECCENTRICITY": 0.00519375, "INCLINATION": 74.0523, "RA_OF_ASC_NODE": 48.9154, "ARG_OF_PERICENTER": 98.6627, "MEAN_ANOMALY": 262.0414, "EPHEMERIS_TYPE": 0, "CLASSIFICATION_TYPE": "U", "NORAD_CAT_ID": 34037, "ELEMENT_SET_NO": 999, "REV_AT_EPOCH": 87729, "BSTAR": 0.00061970692, "MEAN_MOTION_DOT": 1.755e-05, "MEAN_MOTION_DDOT": 0}, "tle": {"line1": "1 34037U 93036HY  25347.57410646  .00001755  00000+0  61971-3 0  9996", "line2": "2 34037  74.0523  48.9154 0051937  98.6627 262.0414 14.34668836877295"}}, "geometry": {"type": "Point", "coordinates": [-130.2349972910155, -7.177446272064127]}}, {"type": "Feature", "properties": {"norad_id": 34040, "name": "COSMOS 2251 DEB", "group": "cosmos-2251-debris", "lat": 72.54884643292716, "lon": 129.64500121611158, "alt_km": 890.3372430363515, "timestamp": "2025-12-14T05:42:18.856167+00:00", "meta": {"OBJECT_NAME": "COSMOS 2251 DEB", "OBJECT_ID": "1993-036JB", "EPOCH": "2025-12-13T13:31:58.380096", "MEAN_MOTION": 13.68375778, "ECCENTRICITY": 0.03430577, "INCLINATION": 73.9559, "RA_OF_ASC_NODE": 64.5015, "ARG_OF_PERICENTER": 17.7009, "MEAN_ANOMALY": 343.5715, "EPHEMERIS_TYPE": 0, "CLASSIFICATION_TYPE": "U", "NORAD_CAT_ID": 34040, "ELEMENT_SET_NO": 999, "REV_AT_EPOCH": 83611, "BSTAR": 0.00060039029, "MEAN_MOTION_DOT": 7.52e-06, "MEAN_MOTION_DDOT": 0}, "tle": {"line1": "1 34040U 93036JB  25347.56387014  .00000752  00000+0  60039-3 0  9991", "line2": "2 34040  73.9559  64.5015 0343057  17.7009 343.5715 13.68375778836110"}}, "geometry": {"type": "Point", "coordinates": [129.64500121611158, 72.54884643292716]}}, {"type": "Feature", "properties": {"norad_id": 34045, "name": "COSMOS 2251 DEB", "group": "cosmos-2251-debris", "lat": -45.731482472346514, "lon": 145.16399538071045, "alt_km": 802.1507810844469, "timestamp": "2025-12-14T05:42:18.856177+00:00", "meta": {"OBJECT_NAME": "COSMOS 2251 DEB", "OBJECT_ID": "1993-036JG", "EPOCH": "2025-12-13T16:06:08.365824", "MEAN_MOTION": 14.34069478, "ECCENTRICITY": 0.00257077, "INCLINATION": 74.0392, "RA_OF_ASC_NODE": 309.1275, "ARG_OF_PERICENTER": 32.3181, "MEAN_ANOMALY": 150.8752, "EPHEMERIS_TYPE": 0, "CLASSIFICATION_TYPE": "U", "NORAD_CAT_ID": 34045, "ELEMENT_SET_NO": 999, "REV_AT_EPOCH": 88046, "BSTAR": 0.0001419812, "MEAN_MOTION_DOT": 3.72e-06, "MEAN_MOTION_DDOT": 0}, "tle": {"line1": "1 34045U 93036JG  25347.67093016  .00000372  00000+0  14198-3 0  9997", "line2": "2 34045  74.0392 309.1275 0025707  32.3181 150.8752 14.34069478880469"}}, "geometry": {"type": "Point", "coordinates": [145.16399538071045, -45.731482472346514]}}, {"type": "Feature", "properties": {"norad_id": 34046, "name": "COSMOS 2251 DEB", "group": "cosmos-2251-debris", "lat": -69.10783435931164, "lon": -40.88933380148653, "alt_km": 795.6474376011565, "timestamp": "2025-12-14T05:42:18.856188+00:00", "meta": {"OBJECT_NAME": "COSMOS 2251 DEB", "OBJECT_ID": "1993-036JH", "EPOCH": "2025-12-13T12:23:29.889888", "MEAN_MOTION": 14.46485116, "ECCENTRICITY": 0.00744623, "INCLINATION": 74.0402, "RA_OF_ASC_NODE": 9.0231, "ARG_OF_PERICENTER": 92.2054, "MEAN_ANOMALY": 36.6007, "EPHEMERIS_TYPE": 0, "CLASSIFICATION_TYPE": "U", "NORAD_CAT_ID": 34046, "ELEMENT_SET_NO": 999, "REV_AT_EPOCH": 87837, "BSTAR": 0.0018202535, "MEAN_MOTION_DOT": 6.759e-05, "MEAN_MOTION_DDOT": 0}, "tle": {"line1": "1 34046U 93036JH  25347.51631817  .00006759  00000+0  18203-2 0  9993", "line2": "2 34046  74.0402   9.0231 0074462  92.2054  36.6007 14.46485116878371"}}, "geometry": {"type": "Point", "coordinates": [-40.88933380148653, -69.10783435931164]}}, {"type": "Feature", "properties": {"norad_id": 34050, "name": "COSMOS 2251 DEB", "group": "cosmos-2251-debris", "lat": -63.932205979343955, "lon": -136.8471875427578, "alt_km": 1070.0763471804576, "timestamp": "2025-12-14T05:42:18.856198+00:00", "meta": {"OBJECT_NAME": "COSMOS 2251 DEB", "OBJECT_ID": "1993-036JM", "EPOCH": "2025-12-13T12:02:17.402784", "MEAN_MOTION": 13.96183791, "ECCENTRICITY": 0.02145523, "INCLINATION": 74.0883, "RA_OF_ASC_NODE": 8.7455, "ARG_OF_PERICENTER": 72.864, "MEAN_ANOMALY": 77.5384, "EPHEMERIS_TYPE": 0, "CLASSIFICATION_TYPE": "U", "NORAD_CAT_ID": 34050, "ELEMENT_SET_NO": 999, "REV_AT_EPOCH": 85442, "BSTAR": 0.00080435914, "MEAN_MOTION_DOT": 1.32e-05, "MEAN_MOTION_DDOT": 0}, "tle": {"line1": "1 34050U 93036JM  25347.50159031  .00001320  00000+0  80436-3 0  9997", "line2": "2 34050  74.0883   8.7455 0214552  72.8640  77.5384 13.96183791854424"}}, "geometry": {"type": "Point", "coordinates": [-136.8471875427578, -63.932205979343955]}}, {"type": "Feature", "properties": {"norad_id": 34053, "name": "COSMOS 2251 DEB", "group": "cosmos-2251-debris", "lat": -34.38499469567659, "lon": -131.6831036136729, "alt_km": 932.4918593851153, "timestamp": "2025-12-14T05:42:18.856208+00:00", "meta": {"OBJECT_NAME": "COSMOS 2251 DEB", "OBJECT_ID": "1993-036JQ", "EPOCH": "2025-12-12T18:17:00.097152", "MEAN_MOTION": 13.49161453, "ECCENTRICITY": 0.04222221, "INCLINATION": 73.8441, "RA_OF_ASC_NODE": 242.1358, "ARG_OF_PERICENTER": 30.6806, "MEAN_ANOMALY": 331.8265, "EPHEMERIS_TYPE": 0, "CLASSIFICATION_TYPE": "U", "NORAD_CAT_ID": 34053, "ELEMENT_SET_NO": 999, "REV_AT_EPOCH": 82684, "BSTAR": 0.0010707402, "MEAN_MOTION_DOT": 1.146e-05, "MEAN_MOTION_DDOT": 0}, "tle": {"line1": "1 34053U 93036JQ  25346.76180668  .00001146  00000+0  10707-2 0  9996", "line2": "2 34053  73.8441 242.1358 0422222  30.6806 331.8265 13.49161453826849"}}, "geometry": {"type": "Point", "coordinates": [-131.6831036136729, -34.38499469567659]}}, {"type": "Feature", "properties": {"norad_id": 34056, "name": "COSMOS 2251 DEB", "group": "cosmos-2251-debris", "lat": 12.432327996022245, "lon": -109.91366033259536, "alt_km": 761.4058516755194, "timestamp": "2025-12-14T05:42:18.856218+00:00", "meta": {"OBJECT_NAME": "COSMOS 2251 DEB", "OBJECT_ID": "1993-036JT", "EPOCH": "2025-12-13T16:06:36.823392", "MEAN_MOTION": 14.20561991, "ECCENTRICITY": 0.01241022, "INCLINATION": 74.0593, "RA_OF_ASC_NODE": 74.7113, "ARG_OF_PERICENTER": 122.2983, "MEAN_ANOMALY": 27.905, "EPHEMERIS_TYPE": 0, "CLASSIFICATION_TYPE": "U", "NORAD_CAT_ID": 34056, "ELEMENT_SET_NO": 999, "REV_AT_EPOCH": 86424, "BSTAR": 0.0012225202, "MEAN_MOTION_DOT": 2.817e-05, "MEAN_MOTION_DDOT": 0}, "tle": {"line1": "1 34056U 93036JT  25347.67125953  .00002817  00000+0  12225-2 0  9999", "line2": "2 34056  74.0593  74.7113 0124102 122.2983  27.9050 14.20561991864243"}}, "geometry": {"type": "Point", "coordinates": [-109.91366033259536, 12.432327996022245]}}]}